{
  "links" : {
    "next" : "https://api.nasa.gov/neo/rest/v1/feed?start_date=2014-09-23&end_date=2014-09-23&detailed=true&api_key=t0TVs3DtDT2H8Oy2Zy8m2eVrNsAVKAexjcZXUckd",
    "prev" : "https://api.nasa.gov/neo/rest/v1/feed?start_date=2014-09-21&end_date=2014-09-21&detailed=true&api_key=t0TVs3DtDT2H8Oy2Zy8m2eVrNsAVKAexjcZXUckd",
    "self" : "https://api.nasa.gov/neo/rest/v1/feed?start_date=2014-09-22&end_date=2014-09-22&detailed=true&api_key=t0TVs3DtDT2H8Oy2Zy8m2eVrNsAVKAexjcZXUckd"
  },
  "element_count" : 13,
  "near_earth_objects" : {
    "2014-09-22" : [ {
      "links" : {
        "self" : "https://api.nasa.gov/neo/rest/v1/neo/2409836?api_key=t0TVs3DtDT2H8Oy2Zy8m2eVrNsAVKAexjcZXUckd"
      },
      "neo_reference_id" : "2409836",
      "name" : "409836 (2006 QY110)",
      "nasa_jpl_url" : "http://ssd.jpl.nasa.gov/sbdb.cgi?sstr=2409836",
      "absolute_magnitude_h" : 18.1,
      "estimated_diameter" : {
        "kilometers" : {
          "estimated_diameter_min" : 0.6376097899,
          "estimated_diameter_max" : 1.4257388333
        },
        "meters" : {
          "estimated_diameter_min" : 637.6097898754,
          "estimated_diameter_max" : 1425.7388332807
        },
        "miles" : {
          "estimated_diameter_min" : 0.3961922327,
          "estimated_diameter_max" : 0.8859127646
        },
        "feet" : {
          "estimated_diameter_min" : 2091.8957030147,
          "estimated_diameter_max" : 4677.6209937807
        }
      },
      "is_potentially_hazardous_asteroid" : true,
      "close_approach_data" : [ {
        "close_approach_date" : "2014-09-22",
        "epoch_date_close_approach" : 1411369200000,
        "relative_velocity" : {
          "kilometers_per_second" : "25.7108358499",
          "kilometers_per_hour" : "92559.0090595396",
          "miles_per_hour" : "57512.5687125789"
        },
        "miss_distance" : {
          "astronomical" : "0.4219867917",
          "lunar" : "164.1528625488",
          "kilometers" : "63128324",
          "miles" : "39226124"
        },
        "orbiting_body" : "Earth"
      } ],
      "orbital_data" : {
        "orbit_id" : "45",
        "orbit_determination_date" : "2017-04-06 09:21:42",
        "orbit_uncertainty" : "0",
        "minimum_orbit_intersection" : ".0311731",
        "jupiter_tisserand_invariant" : "3.694",
        "epoch_osculation" : "2458000.5",
        "eccentricity" : ".5730681292385106",
        "semi_major_axis" : "1.924820276157496",
        "inclination" : "6.407307008701104",
        "ascending_node_longitude" : "222.6984468532267",
        "orbital_period" : "975.4021403067627",
        "perihelion_distance" : ".8217671213795663",
        "perihelion_argument" : "221.5028326741423",
        "aphelion_distance" : "3.027873430935425",
        "perihelion_time" : "2457940.674763601533",
        "mean_anomaly" : "22.08021103652164",
        "mean_motion" : ".36907854219674",
        "equinox" : "J2000"
      }
    }, {
      "links" : {
        "self" : "https://api.nasa.gov/neo/rest/v1/neo/2414960?api_key=t0TVs3DtDT2H8Oy2Zy8m2eVrNsAVKAexjcZXUckd"
      },
      "neo_reference_id" : "2414960",
      "name" : "414960 (2011 CS4)",
      "nasa_jpl_url" : "http://ssd.jpl.nasa.gov/sbdb.cgi?sstr=2414960",
      "absolute_magnitude_h" : 20.0,
      "estimated_diameter" : {
        "kilometers" : {
          "estimated_diameter_min" : 0.2658,
          "estimated_diameter_max" : 0.5943468684
        },
        "meters" : {
          "estimated_diameter_min" : 265.8,
          "estimated_diameter_max" : 594.3468684194
        },
        "miles" : {
          "estimated_diameter_min" : 0.1651604118,
          "estimated_diameter_max" : 0.369309908
        },
        "feet" : {
          "estimated_diameter_min" : 872.047272,
          "estimated_diameter_max" : 1949.9569797852
        }
      },
      "is_potentially_hazardous_asteroid" : false,
      "close_approach_data" : [ {
        "close_approach_date" : "2014-09-22",
        "epoch_date_close_approach" : 1411369200000,
        "relative_velocity" : {
          "kilometers_per_second" : "13.0480392333",
          "kilometers_per_hour" : "46972.9412397691",
          "miles_per_hour" : "29187.1589608999"
        },
        "miss_distance" : {
          "astronomical" : "0.4175449667",
          "lunar" : "162.424987793",
          "kilometers" : "62463836",
          "miles" : "38813228"
        },
        "orbiting_body" : "Earth"
      } ],
      "orbital_data" : {
        "orbit_id" : "70",
        "orbit_determination_date" : "2017-04-06 09:21:30",
        "orbit_uncertainty" : "0",
        "minimum_orbit_intersection" : ".157236",
        "jupiter_tisserand_invariant" : "4.278",
        "epoch_osculation" : "2458000.5",
        "eccentricity" : ".326926026188357",
        "semi_major_axis" : "1.607572037992917",
        "inclination" : "7.701438659212789",
        "ascending_node_longitude" : "287.6017964949798",
        "orbital_period" : "744.4818118094945",
        "perihelion_distance" : "1.082014899800374",
        "perihelion_argument" : "105.7039283625439",
        "aphelion_distance" : "2.13312917618546",
        "perihelion_time" : "2457680.437990765704",
        "mean_anomaly" : "154.7684866125794",
        "mean_motion" : ".4835578173830799",
        "equinox" : "J2000"
      }
    }, {
      "links" : {
        "self" : "https://api.nasa.gov/neo/rest/v1/neo/2416801?api_key=t0TVs3DtDT2H8Oy2Zy8m2eVrNsAVKAexjcZXUckd"
      },
      "neo_reference_id" : "2416801",
      "name" : "416801 (2005 GC120)",
      "nasa_jpl_url" : "http://ssd.jpl.nasa.gov/sbdb.cgi?sstr=2416801",
      "absolute_magnitude_h" : 19.6,
      "estimated_diameter" : {
        "kilometers" : {
          "estimated_diameter_min" : 0.3195618867,
          "estimated_diameter_max" : 0.7145621017
        },
        "meters" : {
          "estimated_diameter_min" : 319.5618867213,
          "estimated_diameter_max" : 714.5621017269
        },
        "miles" : {
          "estimated_diameter_min" : 0.1985664891,
          "estimated_diameter_max" : 0.4440081677
        },
        "feet" : {
          "estimated_diameter_min" : 1048.4314204307,
          "estimated_diameter_max" : 2344.3639258298
        }
      },
      "is_potentially_hazardous_asteroid" : true,
      "close_approach_data" : [ {
        "close_approach_date" : "2014-09-22",
        "epoch_date_close_approach" : 1411369200000,
        "relative_velocity" : {
          "kilometers_per_second" : "15.0537301836",
          "kilometers_per_hour" : "54193.4286608077",
          "miles_per_hour" : "33673.6890476002"
        },
        "miss_distance" : {
          "astronomical" : "0.4313325615",
          "lunar" : "167.7883605957",
          "kilometers" : "64526432",
          "miles" : "40094868"
        },
        "orbiting_body" : "Earth"
      } ],
      "orbital_data" : {
        "orbit_id" : "54",
        "orbit_determination_date" : "2017-04-06 09:21:19",
        "orbit_uncertainty" : "0",
        "minimum_orbit_intersection" : ".00644692",
        "jupiter_tisserand_invariant" : "5.155",
        "epoch_osculation" : "2458000.5",
        "eccentricity" : ".4975688778293094",
        "semi_major_axis" : "1.193774649892514",
        "inclination" : "16.5324902390568",
        "ascending_node_longitude" : "67.97340550446636",
        "orbital_period" : "476.4111917897321",
        "perihelion_distance" : ".5997895369644191",
        "perihelion_argument" : "258.2563697758571",
        "aphelion_distance" : "1.787759762820609",
        "perihelion_time" : "2457857.515706814523",
        "mean_anomaly" : "108.0460460078575",
        "mean_motion" : ".7556497542544905",
        "equinox" : "J2000"
      }
    } ]
  }
}